HORYU-4                 
1 41340U 16012D   20243.35486420  .00000446  00000-0  26894-4 0  9992
2 41340  31.0041 221.1429 0013975 162.4441 197.6680 15.01543181248999
E-ST@R-II               
1 41459U 16025D   20243.85179743  .00000989  00000-0  53919-4 0  9999
2 41459  98.1107 357.7493 0163322 321.6784  37.2922 15.06598683238646
AAUSAT 4                
1 41460U 16025E   20243.87330844  .00000672  00000-0  36984-4 0  9996
2 41460  98.1069   0.3716 0152142 309.3996  49.3878 15.08969697238867
BEESAT-4                
1 41619U 16040W   20243.09034501  .00001227  00000-0  53241-4 0  9996
2 41619  97.3134 300.8639 0009296 281.6384  78.3810 15.24177740220613
CANX-7                  
1 41788U 16059F   20243.86375765  .00005899  00000-0  79469-3 0  9996
2 41788  98.2584 333.6464 0028764  73.8638 286.5758 14.79290778210814
RAVAN                   
1 41849U 16067B   20243.85853754  .00000938  00000-0  83317-4 0  9998
2 41849  97.9389 355.0023 0007837  10.1397 349.9982 14.98613423207764
CELTEE 1                
1 41850U 16067C   20243.78897592  .00000783  00000-0  72910-4 0  9995
2 41850  97.9330 352.4375 0008786  12.8128 347.3315 14.97216715207627
OPTICUBE 04             
1 41851U 16067D   20243.86608518  .00000235  00000-0  25758-4 0  9993
2 41851  97.9322 352.0945 0009176  13.7311 346.4158 14.96950919207610
AEROCUBE 8D             
1 41852U 16067E   20243.88253336 -.00000347  00000-0 -24831-4 0  9997
2 41852  97.9321 351.9520 0009870  10.8053 349.3379 14.96946456207594
AEROCUBE 8C             
1 41853U 16067F   20243.78219741  .00000699  00000-0  66164-4 0  9992
2 41853  97.9317 351.7471 0010006  14.3767 345.7737 14.96910041207574
PROMETHEUS 2-1          
1 41854U 16067G   20243.86906869  .00000298  00000-0  31022-4 0  9996
2 41854  97.9335 352.2125 0010531  12.7405 347.4080 14.97255977207606
PROMETHEUS 2-3          
1 41855U 16067H   20243.86903587  .00000307  00000-0  31801-4 0  9997
2 41855  97.9337 352.2487 0010695  12.9671 347.1823 14.97264936207605
INS-1B                  
1 41954U 17008G   20243.76208387  .00001281  00000-0  54233-4 0  9994
2 41954  97.3485 306.8147 0010117  47.3100 312.8989 15.24939271196699
BGUSAT                  
1 41999U 17008BD  20243.68757127  .00002549  00000-0  96593-4 0  9998
2 41999  97.3611 311.3116 0009143  56.4053 303.8058 15.27770699196283
DIDO-2                  
1 42000U 17008BE  20243.74091759  .00000915  00000-0  39968-4 0  9999
2 42000  97.3494 307.2714 0009906  64.1176 296.1082 15.24588130196086
PEASSS                  
1 42015U 17008BV  20243.85888091  .00001139  00000-0  47380-4 0  9996
2 42015  97.3521 309.1412 0007842  67.7018 292.5051 15.25757906196693
AL-FARABI 1             
1 42016U 17008BW  20243.70701023  .00001538  00000-0  61421-4 0  9995
2 42016  97.3552 310.1618 0007666  67.7397 292.4654 15.26640183196857
NAYIF-1 (EO-88)         
1 42017U 17008BX  20243.88034884  .00001526  00000-0  60859-4 0  9990
2 42017  97.3546 310.3428 0007698  66.5422 293.6625 15.26682304196901
UCLSAT                  
1 42765U 17036A   20243.83127469  .00001235  00000-0  54276-4 0  9991
2 42765  97.2946 296.0545 0012787 120.0605 240.1903 15.23670334177900
LITUANICASAT-2          
1 42768U 17036D   20243.71372686  .00002300  00000-0  96611-4 0  9997
2 42768  97.3008 296.0345 0016295 112.2189 248.0779 15.24317452177154
AALTO-1                 
1 42775U 17036L   20243.81594649  .00000778  00000-0  37031-4 0  9999
2 42775  97.2920 293.6438 0015404 115.4012 244.8821 15.21937932176981
URSA MAIOR              
1 42776U 17036M   20243.73038289  .00000863  00000-0  40538-4 0  9995
2 42776  97.2933 293.8780 0015215 115.3405 244.9410 15.22129197176985
COMPASS 2               
1 42777U 17036N   20243.81000717  .00001661  00000-0  71027-4 0  9994
2 42777  97.2992 296.5174 0013846 112.5442 247.7263 15.24122289177127
DIAMOND RED             
1 42783U 17036U   20243.66289064  .00000981  00000-0  44599-4 0  9996
2 42783  97.2946 295.0810 0013468 122.8706 237.3829 15.22957444177042
PEGASUS                 
1 42784U 17036V   20243.74048545  .00001146  00000-0  51016-4 0  9999
2 42784  97.2951 295.6255 0013327 121.5618 238.6922 15.23352746177087
DIAMOND GREEN           
1 42785U 17036W   20243.59597531  .00001003  00000-0  45545-4 0  9999
2 42785  97.2949 295.0540 0013343 123.6701 236.5810 15.22956347177023
DIAMOND BLUE            
1 42786U 17036X   20243.85799676  .00000971  00000-0  44169-4 0  9997
2 42786  97.2947 295.3033 0013200 123.0082 237.2425 15.22957765177148
NUDTSAT                 
1 42787U 17036Y   20243.92897974  .00001361  00000-0  57715-4 0  9991
2 42787  97.2991 297.3792 0011924 112.0751 248.1755 15.24728751177043
SUCHAI                  
1 42788U 17036Z   20243.80298628  .00001367  00000-0  59342-4 0  9994
2 42788  97.2959 296.3450 0012891 119.5013 240.7512 15.23928897177204
SKCUBE                  
1 42789U 17036AA  20243.72569156  .00001272  00000-0  55665-4 0  9992
2 42789  97.2954 296.0990 0012776 120.0992 240.1513 15.23759395177100
VZLUSAT-1               
1 42790U 17036AB  20243.72182470  .00001782  00000-0  74747-4 0  9992
2 42790  97.2981 297.1729 0012316 117.6868 242.5621 15.24714310177169
ROBUSTA-1B              
1 42792U 17036AD  20243.73579721  .00001363  00000-0  59133-4 0  9991
2 42792  97.2957 296.3837 0012350 120.1844 240.0618 15.23956639177133
CICERO 6                
1 42793U 17036AE  20243.75576832  .00000899  00000-0  40781-4 0  9996
2 42793  97.2931 295.7118 0011633 122.3357 237.9008 15.23252963177178
D-SAT                   
1 42794U 17036AF  20243.78652714  .00000211  00000-0  23315-4 0  9996
2 42794  97.4893 272.7457 0127587 116.6007 244.8351 14.91310025173771
CORVUS BC2              
1 42846U 17042X   20243.67675882  .00000277  00000-0  32393-4 0  9998
2 42846  97.5121 123.8484 0010584  37.8068 322.3893 14.92130276170475
CORVUS BC1              
1 42847U 17042Y   20243.73446262  .00000130  00000-0  17912-4 0  9992
2 42847  97.5123 124.0865 0010218  37.2694 322.9233 14.92232001170481
MIRATA                  
1 43015U 17073C   20243.72105071  .00000579  00000-0  49862-4 0  9999
2 43015  97.7134 153.1084 0253062 165.9697 194.8721 14.79759995150204
MAKERSAT 0              
1 43016U 17073D   20243.70496881  .00000418  00000-0  37608-4 0  9997
2 43016  97.7171 153.2580 0255974 167.2688 193.5156 14.79295682150179
DELLINGR (RBLE)         
1 43021U 98067NJ  20243.51065027  .00016628  00000-0  12566-3 0  9993
2 43021  51.6336 260.8599 0002081  19.3115 340.7962 15.72588566158510
AEROCUBE 7B (OCSD B)    
1 43042U 17071F   20243.80762196  .00004225  00000-0  99945-4 0  9992
2 43042  51.6376  61.5849 0003967 324.1062  35.9657 15.44078249153861
AEROCUBE 7C (OCSD C)    
1 43043U 17071G   20243.74752700  .00004245  00000-0  10047-3 0  9993
2 43043  51.6376  61.9487 0004239 328.0438  32.0291 15.44051080153829
CHEFSAT                 
1 43044U 17071H   20243.75196248  .00009564  00000-0  17918-3 0  9997
2 43044  51.6378  44.2855 0003937 334.8752  25.2044 15.49374689154068
ASGARDIA 1              
1 43049U 17071N   20243.86903920  .00003872  00000-0  92390-4 0  9991
2 43049  51.6388  60.5928 0002127 352.3436   7.7518 15.44067464153852
ISARA                   
1 43050U 17071P   20243.85049937  .00008470  00000-0  16616-3 0  9996
2 43050  51.6360  47.0521 0002052 353.2817   6.8143 15.48213764154038
PROPCUBE 2 (FAUNA)      
1 43052U 17071R   20243.70314351  .00004870  00000-0  11202-3 0  9993
2 43052  51.6382  59.5011 0002064 349.6663  10.4281 15.44556295153844
CORVUS BC3              
1 43118U 18004H   20243.78133977  .00000780  00000-0  35657-4 0  9991
2 43118  97.4389 313.4313 0011257 144.3961 215.8029 15.23462345146318
MICROMAS-2A             
1 43131U 18004W   20243.70913733  .00001879  00000-0  76980-4 0  9998
2 43131  97.4442 315.3631 0010178 142.0093 218.1865 15.25503167146414
SPACEBEE-4              
1 43139U 18004AE  20243.67801072  .00003087  00000-0  11958-3 0  9990
2 43139  97.4484 316.6998 0009607 142.0324 218.1593 15.26894563146489
SPACEBEE-3              
1 43140U 18004AF  20243.77348257  .00003859  00000-0  14446-3 0  9996
2 43140  97.4504 317.6035 0009371 139.8288 220.3646 15.27872407146543
SPACEBEE-2              
1 43141U 18004AG  20243.86857453  .00004056  00000-0  15016-3 0  9994
2 43141  97.4517 318.0066 0009339 138.9179 221.2765 15.28205176146579
SPACEBEE-1              
1 43142U 18004AH  20243.75283118  .00004578  00000-0  16715-3 0  9990
2 43142  97.4522 318.1976 0009331 139.0501 221.1441 15.28593402146561
CICERO 7                
1 43143U 18004AJ  20243.84003469  .00001708  00000-0  70210-4 0  9993
2 43143  97.4419 315.6579 0008214 148.1252 212.0485 15.25524030146454
GOMX-4B                 
1 43196U 18015E   20243.86011034  .00000484  00000-0  22707-4 0  9990
2 43196  97.4475  11.8694 0018247 198.3982 161.6597 15.24311362143238
GOMX-4A                 
1 43197U 18015F   20243.82065530  .00000730  00000-0  32468-4 0  9996
2 43197  97.4457  11.9454 0018331 199.0812 315.3381 15.24599412143242
UBAKUSAT                
1 43467U 98067NQ  20243.47837650  .00045009  00000-0  24401-3 0  9997
2 43467  51.6328 259.7165 0002874  25.9249 334.1896 15.79570436131790
CUBERRT                 
1 43546U 98067NU  20243.87558343  .00059421  00000-0  36500-3 0  9994
2 43546  51.6315 258.6623 0003649  28.9052 331.2150 15.76654051121970
TEMPEST-D               
1 43547U 98067NV  20243.64227434  .00005751  00000-0  66727-4 0  9996
2 43547  51.6361 297.0827 0004806 344.1338  15.9505 15.63454082121126
RAINCUBE                
1 43548U 98067NW  20243.57111931  .00041830  00000-0  23769-3 0  9999
2 43548  51.6288 267.8159 0005454  25.7472 334.3799 15.78547298121951
HALOSAT                 
1 43549U 98067NX  20243.55766025  .00036864  00000-0  22217-3 0  9996
2 43549  51.6333 269.3455 0005368  31.7113 328.4210 15.77287760121497
